LILACSAT-2
1 40908U 15049K   17264.90145358  .00000451  00000-0  28989-4 0  9995
2 40908  97.4647 267.8984 0014760 233.3296 126.6579 15.13226528110799
XW-2F
1 40910U 15049M   17264.81536729  .00001251  00000-0  68896-4 0  9994
2 40910  97.4560 268.9737 0013931 231.3184 128.6803 15.15794610110782
XW-2B
1 40911U 15049N   17264.81392352  .00000824  00000-0  47881-4 0  9993
2 40911  97.4584 268.5557 0013023 234.7158 125.2857 15.14787858110760
DCBB
1 40912U 15049P   17264.87663492  .00001995  00000-0  10147-3 0  9990
2 40912  97.4519 271.1484 0014149 221.5155 257.7283 15.17929589110956
TW-1C
1 40926U 15051B   17264.86930650  .00009262  00000-0  20291-3 0  9996
2 40926  97.2205 303.7221 0011937 167.7583 282.3032 15.44246517111837
TW-1A
1 40928U 15051D   17264.87581281  .00004118  00000-0  11642-3 0  9996
2 40928  97.2186 298.9485 0011427 202.9106 282.9578 15.36831550111548
IO-86
1 40931U 15052B   17264.70097775  .00000724  00000-0  11913-4 0  9994
2 40931   5.9971 264.5367 0012596 171.9806 188.0583 14.76543284107250
GomX-3
1 40949U 98067HA  16292.18357804  .08527750  12374-4  77882-3 0  9992
2 40949  51.6055 106.7696 0006699 286.1344  73.8944 16.38002265 59645
LQSat
1 40958U 15057A   17264.84561590  .00000040  00000-0  13971-4 0  9991
2 40958  97.9711 338.4424 0019537 114.3313 245.9928 14.72986167105344
AO-85
1 40967U 15058D   17263.19649613  .00000297  00000-0  52980-4 0 00956
2 40967 064.7762 290.6711 0177485 043.1039 318.3805 14.75495999013811
ATHENOXAT-1
1 41168U 15077C   17264.41630183  .00002852  00000-0  12312-3 0  9995
2 41168 014.9872 186.3088 0012041 270.1365 237.2447 15.11896665097620
ChubuSat-2
1 41338U 16012B   17264.25781077  .00000445  00000-0  28196-4 0  9999
2 41338 031.0028 222.0848 0013973 290.1210 069.7922 14.99806874087421
ChubuSat-3
1 41339U 16012C   17264.23955333  .00000541  00000-0  35622-4 0  9995
2 41339  31.0102 221.1940 0013862 296.2140  63.7063 15.00007988 87404
Horyu-4
1 41340U 16012D   17264.23691727  .00000678  00000-0  45485-4 0  9990
2 41340  31.0046 218.0384 0014193 305.9089  54.0229 15.00701089 87453
OUFTI-1
1 41458U 16025C   17264.62282302  .00001210  00000-0  68700-4 0  9990
2 41458 098.1777 307.7056 0172107 327.7666 031.3092 15.03601057077073
e-st at r-II
1 41459U 16025D   17264.58812843  .00002225  00000-0  12268-3 0  9999
2 41459 098.1773 307.5978 0172466 328.2530 030.8379 15.03419284077054
AAUSAT4
1 41460U 16025E   17264.85748674  .00003156  00000-0  17154-3 0  9994
2 41460  98.1700 308.0487 0164579 325.1468  33.8971 15.04460475 77127
NODES 1
1 41477U 98067HX  17262.38431888  .17021661  12538-4  46079-3 0  9990
2 41477  51.6074 225.8859 0003017 249.6794 110.5489 16.45625800 77086
NODES 2
1 41478U 98067HY  17264.86603973  .02704921  12034-4  74365-3 0  9993
2 41478  51.6139 214.0414 0003278 213.0036 147.0781 16.27230414 77464
LO-87
1 41557U 16033B   17264.85512402  .00001703  00000-0  66135-4 0  9998
2 41557  97.4580 344.3619 0014870  32.2640 327.9505 15.27399110 73182
NuSat2
1 41558U 16033C   17264.76745425  .00001803  00000-0  70233-4 0  9997
2 41558  97.4608 344.3390 0014293  31.5198 328.6894 15.27219223 73162
Lapan A3
1 41603U 16040E   17264.85639537  .00000186  00000-0  12009-4 0  9992
2 41603  97.4514 325.6370 0015546  96.3830 357.3948 15.19412195 69330
Swayam
1 41607U 16040J   17264.64502944  .00001973  00000-0  91376-4 0  9993
2 41607  97.4512 325.9440 0015896  99.1577 261.1458 15.21177521 69264
Pratham
1 41783U 16059A   17264.60556813  .00000086  00000-0  26113-4 0  9999
2 41783 098.1575 324.9336 0032899 216.6773 143.2176 14.62860268052692
AlSat 1N
1 41789U 16059G   17264.85595803  .00000132  00000-0  34352-4 0  9990
2 41789  98.1579 325.8713 0027641 208.5870 151.3807 14.64077338 52756
ScatSat
1 41790U 16059H   17264.76221694  .00000026  00000-0  17968-4 0  9992
2 41790  98.3006 311.8380 0017924 190.9125 169.1683 14.50855402 52266
TY-1
1 41844U 16066D   17264.90901595  .00001799  00000-0  80942-4 0  9991
2 41844  97.4061 270.6198 0013928 259.5257 162.7101 15.22330482 48056
CAS-2T
1 41845U 16066E   17264.50187186  .00000201  00000-0  41840-4 0  9991
2 41845  98.7738 282.4216 0365922 322.5763  35.0444 14.37800911 45335
Pegasus-1
1 41846U 16066F   17264.60385862  .00000367  00000-0  67384-4 0  9998
2 41846  98.7781 282.2407 0368397 323.8515  33.8267 14.37120088 45320
STARS-C
1 41895U 98067KR  17264.18118992  .00036849  00000-0  33216-3 0  9994
2 41895  51.6348 267.9401 0004321 359.4263   0.6728 15.67792208 43015
Tancredo 1
1 41931U 98067KT  17264.39197573  .00165233  00000-0  68775-3 0  9998
2 41931 051.6289 257.2357 0003354 031.3378 328.7825 15.84702490038749
TO-89
1 41932U 98067KU  17264.39835968  .00015512  00000-0  17826-3 0  9991
2 41932 051.6388 270.9457 0003600 283.9170 076.1424 15.62227504038565
AOBA-V3LOX3
1 41935U 98067KX  17264.42504876  .00017887  00000-0  19935-3 0  9999
2 41935 051.6382 270.3668 0003136 295.7503 064.3168 15.62897967038677
OSNSAT
1 41939U 98067KZ  17264.40215590  .00044029  00000-0  34464-3 0  9995
2 41939 051.6338 264.1495 0003030 319.6365 040.4407 15.71138622038011
EO-88
1 42017U 17008BX  17264.61333149  .00001870  00000-0  81682-4 0  9995
2 42017  97.4858 325.8533 0005245 233.9432 126.1319 15.23370011 33167
HAVELSAT
1 42700U 98067LH  17264.67407564  .00014626  00000-0  19289-3 0  9993
2 42700  51.6385 275.0115 0006345 338.9408  21.1323 15.58640099 19972
SOMP2
1 42701U 98067LJ  17264.62270013  .00014683  00000-0  19597-3 0  9991
2 42701  51.6381 275.4223 0006200 338.6373  21.4359 15.58317277 19950
Columbia
1 42702U 98067LK  17264.42957145  .00037223  00000-0  41366-3 0  9992
2 42702 051.6371 274.8768 0006430 346.9164 013.1663 15.62500725019876
PHOENIX
1 42706U 98067LP  17264.42485961  .00012775  00000-0  17051-3 0  9997
2 42706 051.6379 276.3527 0001650 354.5111 005.5863 15.58466675019848
X-CubeSat
1 42707U 98067LQ  17264.42453160  .00014601  00000-0  19335-3 0  9991
2 42707 051.6372 276.3453 0001784 356.3371 003.7608 15.58545387019830
qbee
1 42708U 98067LR  17264.62048119  .00016059  00000-0  21257-3 0  9993
2 42708  51.6373 275.4042 0001759 355.2603   4.8373 15.58470215 19821
ZA-AeroSat
1 42713U 98067LU  17264.45765905  .00011240  00000-0  15485-3 0  9992
2 42713 051.6382 276.5683 0001098 285.4972 074.5899 15.57757825019505
LINK
1 42714U 98067LV  17264.43134729  .00018379  00000-0  23780-3 0  9992
2 42714 051.6375 276.3885 0001274 322.8811 037.2093 15.58966866019616
UPSat
1 42716U 98067LX  17264.41611177  .00016904  00000-0  21928-3 0  9993
2 42716 051.6384 276.2908 0004964 346.5178 013.5681 15.58957401019638
SpaceCube
1 42717U 98067LY  17264.43871284  .00014872  00000-0  19845-3 0  9990
2 42717 051.6382 276.4407 0004800 344.5915 015.4930 15.58316849018877
Hoopoe
1 42718U 98067LZ  17264.61968804  .00016701  00000-0  21920-3 0  9996
2 42718 051.6377 275.4007 0004799 345.5345 014.5509 15.58656984018905
Challenger
1 42721U 98067MA  17264.42286426  .00020505  00000-0  25970-3 0  9998
2 42721 051.6370 276.3303 0006972 321.8336 038.2163 15.59432023018572
NJUST-1
1 42722U 98067MB  17264.67425462  .00012287  00000-0  17005-3 0  9999
2 42722  51.6381 275.7614 0007019 318.0808  41.9646 15.57518037 18607
UNSW-EC0
1 42723U 98067MC  17264.58396294  .00019037  00000-0  25100-3 0  9995
2 42723 051.6384 275.9111 0006826 320.0456 040.0033 15.58417533018578
DUTHsat
1 42724U 98067MD  17264.43365082  .00020486  00000-0  26170-3 0  9999
2 42724 051.6383 276.4066 0006279 326.9085 033.1515 15.59209838018495
LO-90
1 42725U 98067ME  17264.41716238  .00013512  00000-0  18491-3 0  9990
2 42725 051.6383 277.0470 0006128 322.8956 037.1612 15.57725746018487
nSIGHT1
1 42726U 98067MF  17264.45325965  .00007495  00000-0  11048-3 0  9992
2 42726 051.6390 277.2896 0006212 320.6204 039.4335 15.56492973018474
QBITO
1 42728U 98067MH  17264.59085519  .00017149  00000-0  22919-3 0  9993
2 42728  51.6394 275.9617 0003859 341.2323  18.8527 15.58153523 18304
Aalto-2
1 42729U 98067MJ  17264.39831140  .00014729  00000-0  19798-3 0  9993
2 42729 051.6386 276.9216 0003851 340.5810 019.5035 15.58133764018281
SUSat
1 42730U 98067MK  17264.40398573  .00013855  00000-0  18783-3 0  9997
2 42730 051.6382 276.9577 0003829 337.4596 022.6228 15.57963208018282
i-INSPIRE II
1 42731U 98067ML  17264.51476438  .00017288  00000-0  22695-3 0  9998
2 42731 051.6370 276.1897 0005379 266.4341 093.6037 15.58619793018349
PolyITAN-2-SAU
1 42732U 98067MM  17264.45901562  .00015264  00000-0  20412-3 0  9990
2 42732 051.6375 276.5665 0005638 263.7643 096.2708 15.58231391018332
SNUSAT-1
1 42733U 98067MN  17264.66079801  .00015564  00000-0  20966-3 0  9993
2 42733  51.6377 275.6654 0005636 266.3562  93.6786 15.58017613 18369
ExAlta-1
1 42734U 98067MP  17264.45148104  .00016405  00000-0  21639-3 0  9997
2 42734  51.6372 276.5186 0007569 291.8241  68.1946 15.58522253 18286
Aoxiang-1
1 42735U 98067MQ  17264.86355012  .00012413  00000-0  17119-3 0  9994
2 42735  51.6378 274.7746 0007555 314.7535  45.2842 15.57597484 19763
BeEagleSat
1 42736U 98067MR  17264.85990224  .00013817  00000-0  18850-3 0  9996
2 42736  51.6378 274.7504 0007410 314.6102  45.4285 15.57777461 18458
Atlantis
1 42737U 98067MS  17264.43659961  .00033540  00000-0  39113-3 0  9991
2 42737 051.6362 275.6657 0007012 322.3088 037.7414 15.61301279018293
CAS-4B
1 42759U 17034B   17264.89626462  .00000449  00000-0  41512-4 0  9999
2 42759  43.0185 115.8496 0008394 239.3655 249.3786 15.09005082 14915
CAS-4A
1 42761U 17034D   17264.89087568  .00000451  00000-0  41579-4 0  9996
2 42761  43.0193 115.8168 0008653 240.0942 245.6297 15.09079593 14902
UCLSat
1 42765U 17036A   17264.61132867  .00001460  00000-0  69016-4 0  9992
2 42765  97.4405 323.3045 0010602 301.3956  58.6242 15.20962972 13870
NIUSat
1 42766U 17036B   17264.42307480  .00001236  00000-0  61076-4 0  9996
2 42766 097.4408 322.9488 0014649 285.0111 074.9502 15.19666004013703
